{"type": "FeatureCollection", "features": [ {"type": "Feature", "properties": {"norad_id": 40315, "name": "COSMOS 2501 (702K)", "group": "gnss", "lat": -15.71195538587673, "lon": -171.6007060396444, "alt_km": 19170.625738021783, "timestamp": "2025-12-24T05:51:19.851596+00:00", "meta": {"OBJECT_NAME": "COSMOS 2501 (702K)", "OBJECT_ID": "2014-075A", "EPOCH": "2025-12-19T02:31:27.452640", "MEAN_MOTION": 2.13101513, "ECCENTRICITY": 0.0020099, "INCLINATION": 63.6146, "RA_OF_ASC_NODE": 196.6046, "ARG_OF_PERICENTER": 204.1838, "MEAN_ANOMALY": 155.7988, "EPHEMERIS_TYPE": 0, "CLASSIFICATION_TYPE": "U", "NORAD_CAT_ID": 40315, "ELEMENT_SET_NO": 999, "REV_AT_EPOCH": 8601, "BSTAR": 0, "MEAN_MOTION_DOT": 1.06e-06, "MEAN_MOTION_DDOT": 0}, "tle": {"line1": "1 40315U 14075A   25353.10517885  .00000106  00000+0  00000+0 0  9998", "line2": "2 40315  63.6146 196.6046 0020099 204.1838 155.7988  2.13101513 86014"}}, "geometry": {"type": "Point", "coordinates": [-171.6007060396444, -15.71195538587673]}}, {"type": "Feature", "properties": {"norad_id": 40534, "name": "GPS BIIF-9  (PRN 26)", "group": "gnss", "lat": 32.82339305900197, "lon": 2.5461115735130826, "alt_km": 20217.7940551678, "timestamp": "2025-12-24T05:51:19.851608+00:00", "meta": {"OBJECT_NAME": "GPS BIIF-9  (PRN 26)", "OBJECT_ID": "2015-013A", "EPOCH": "2025-12-23T13:23:27.680064", "MEAN_MOTION": 2.00561916, "ECCENTRICITY": 0.01074584, "INCLINATION": 53.1963, "RA_OF_ASC_NODE": 211.4421, "ARG_OF_PERICENTER": 38.7467, "MEAN_ANOMALY": 322.0973, "EPHEMERIS_TYPE": 0, "CLASSIFICATION_TYPE": "U", "NORAD_CAT_ID": 40534, "ELEMENT_SET_NO": 999, "REV_AT_EPOCH": 7830, "BSTAR": 0, "MEAN_MOTION_DOT": 7.5e-07, "MEAN_MOTION_DDOT": 0}, "tle": {"line1": "1 40534U 15013A   25357.55795926  .00000075  00000+0  00000+0 0  9996", "line2": "2 40534  53.1963 211.4421 0107458  38.7467 322.0973  2.00561916 78304"}}, "geometry": {"type": "Point", "coordinates": [2.5461115735130826, 32.82339305900197]}}, {"type": "Feature", "properties": {"norad_id": 40544, "name": "GSAT0203 (GALILEO 7)", "group": "gnss", "lat": -54.8495351010015, "lon": -125.46578645325127, "alt_km": 23209.532869713345, "timestamp": "2025-12-24T05:51:19.851619+00:00", "meta": {"OBJECT_NAME": "GSAT0203 (GALILEO 7)", "OBJECT_ID": "2015-017A", "EPOCH": "2025-12-20T21:23:15.511200", "MEAN_MOTION": 1.70475982, "ECCENTRICITY": 0.00064626, "INCLINATION": 56.8444, "RA_OF_ASC_NODE": 346.4578, "ARG_OF_PERICENTER": 274.4172, "MEAN_ANOMALY": 85.5182, "EPHEMERIS_TYPE": 0, "CLASSIFICATION_TYPE": "U", "NORAD_CAT_ID": 40544, "ELEMENT_SET_NO": 999, "REV_AT_EPOCH": 6616, "BSTAR": 0, "MEAN_MOTION_DOT": -6.9e-07, "MEAN_MOTION_DDOT": 0}, "tle": {"line1": "1 40544U 15017A   25354.89115175 -.00000069  00000+0  00000+0 0  9991", "line2": "2 40544  56.8444 346.4578 0006462 274.4172  85.5182  1.70475982 66163"}}, "geometry": {"type": "Point", "coordinates": [-125.46578645325127, -54.8495351010015]}}, {"type": "Feature", "properties": {"norad_id": 40545, "name": "GSAT0204 (GALILEO 8)", "group": "gnss", "lat": 55.300265049423835, "lon": 95.67835970012023, "alt_km": 23233.276614962146, "timestamp": "2025-12-24T05:51:19.851630+00:00", "meta": {"OBJECT_NAME": "GSAT0204 (GALILEO 8)", "OBJECT_ID": "2015-017B", "EPOCH": "2025-12-20T13:26:28.826304", "MEAN_MOTION": 1.70475697, "ECCENTRICITY": 0.0006133, "INCLINATION": 56.8522, "RA_OF_ASC_NODE": 346.4847, "ARG_OF_PERICENTER": 266.5447, "MEAN_ANOMALY": 93.3948, "EPHEMERIS_TYPE": 0, "CLASSIFICATION_TYPE": "U", "NORAD_CAT_ID": 40545, "ELEMENT_SET_NO": 999, "REV_AT_EPOCH": 2920, "BSTAR": 0, "MEAN_MOTION_DOT": -7e-07, "MEAN_MOTION_DDOT": 0}, "tle": {"line1": "1 40545U 15017B   25354.56005586 -.00000070  00000+0  00000+0 0  9992", "line2": "2 40545  56.8522 346.4847 0006133 266.5447  93.3948  1.70475697 29206"}}, "geometry": {"type": "Point", "coordinates": [95.67835970012023, 55.300265049423835]}}, {"type": "Feature", "properties": {"norad_id": 40549, "name": "BEIDOU-3S IGSO-1S (C31)", "group": "gnss", "lat": -16.389989853715843, "lon": -76.96862074607702, "alt_km": 35907.80528103687, "timestamp": "2025-12-24T05:51:19.851641+00:00", "meta": {"OBJECT_NAME": "BEIDOU-3S IGSO-1S (C31)", "OBJECT_ID": "2015-019A", "EPOCH": "2025-12-18T19:55:38.829792", "MEAN_MOTION": 1.00292047, "ECCENTRICITY": 0.0036331, "INCLINATION": 49.5404, "RA_OF_ASC_NODE": 297.6395, "ARG_OF_PERICENTER": 194.0028, "MEAN_ANOMALY": 349.3621, "EPHEMERIS_TYPE": 0, "CLASSIFICATION_TYPE": "U", "NORAD_CAT_ID": 40549, "ELEMENT_SET_NO": 999, "REV_AT_EPOCH": 3926, "BSTAR": 0, "MEAN_MOTION_DOT": -1.83e-06, "MEAN_MOTION_DDOT": 0}, "tle": {"line1": "1 40549U 15019A   25352.83031053 -.00000183  00000+0  00000+0 0  9999", "line2": "2 40549  49.5404 297.6395 0036331 194.0028 349.3621  1.00292047 39264"}}, "geometry": {"type": "Point", "coordinates": [-76.96862074607702, -16.389989853715843]}}, {"type": "Feature", "properties": {"norad_id": 40730, "name": "GPS BIIF-10 (PRN 08)", "group": "gnss", "lat": 15.558949910433721, "lon": -74.0933417027996, "alt_km": 19886.360317673898, "timestamp": "2025-12-24T05:51:19.851655+00:00", "meta": {"OBJECT_NAME": "GPS BIIF-10 (PRN 08)", "OBJECT_ID": "2015-033A", "EPOCH": "2025-12-23T05:17:42.404352", "MEAN_MOTION": 2.00565183, "ECCENTRICITY": 0.01115799, "INCLINATION": 54.1216, "RA_OF_ASC_NODE": 274.3416, "ARG_OF_PERICENTER": 27.0753, "MEAN_ANOMALY": 333.5521, "EPHEMERIS_TYPE": 0, "CLASSIFICATION_TYPE": "U", "NORAD_CAT_ID": 40730, "ELEMENT_SET_NO": 999, "REV_AT_EPOCH": 7646, "BSTAR": 0, "MEAN_MOTION_DOT": -1.3e-07, "MEAN_MOTION_DDOT": 0}, "tle": {"line1": "1 40730U 15033A   25357.22062968 -.00000013  00000+0  00000+0 0  9996", "line2": "2 40730  54.1216 274.3416 0111579  27.0753 333.5521  2.00565183 76465"}}, "geometry": {"type": "Point", "coordinates": [-74.0933417027996, 15.558949910433721]}}, {"type": "Feature", "properties": {"norad_id": 40748, "name": "BEIDOU-3S M2S (C58)", "group": "gnss", "lat": -18.23620989990889, "lon": -65.26788097157787, "alt_km": 21517.56042687983, "timestamp": "2025-12-24T05:51:19.851666+00:00", "meta": {"OBJECT_NAME": "BEIDOU-3S M2S (C58)", "OBJECT_ID": "2015-037A", "EPOCH": "2025-12-22T03:06:37.980000", "MEAN_MOTION": 1.86229546, "ECCENTRICITY": 0.00118585, "INCLINATION": 55.0305, "RA_OF_ASC_NODE": 308.1418, "ARG_OF_PERICENTER": 270.827, "MEAN_ANOMALY": 89.0356, "EPHEMERIS_TYPE": 0, "CLASSIFICATION_TYPE": "U", "NORAD_CAT_ID": 40748, "ELEMENT_SET_NO": 999, "REV_AT_EPOCH": 7082, "BSTAR": 0, "MEAN_MOTION_DOT": -5.8e-07, "MEAN_MOTION_DDOT": 0}, "tle": {"line1": "1 40748U 15037A   25356.12960625 -.00000058  00000+0  00000+0 0  9993", "line2": "2 40748  55.0305 308.1418 0011858 270.8270  89.0356  1.86229546 70828"}}, "geometry": {"type": "Point", "coordinates": [-65.26788097157787, -18.23620989990889]}}, {"type": "Feature", "properties": {"norad_id": 40749, "name": "BEIDOU-3S M1S (C57)", "group": "gnss", "lat": -3.522655024241021, "lon": 130.50684478747064, "alt_km": 21536.9139978974, "timestamp": "2025-12-24T05:51:19.851677+00:00", "meta": {"OBJECT_NAME": "BEIDOU-3S M1S (C57)", "OBJECT_ID": "2015-037B", "EPOCH": "2025-12-22T21:29:24.264672", "MEAN_MOTION": 1.86253921, "ECCENTRICITY": 0.00037347, "INCLINATION": 55.0261, "RA_OF_ASC_NODE": 308.1047, "ARG_OF_PERICENTER": 3.0626, "MEAN_ANOMALY": 356.941, "EPHEMERIS_TYPE": 0, "CLASSIFICATION_TYPE": "U", "NORAD_CAT_ID": 40749, "ELEMENT_SET_NO": 999, "REV_AT_EPOCH": 7084, "BSTAR": 0, "MEAN_MOTION_DOT": -5.5e-07, "MEAN_MOTION_DDOT": 0}, "tle": {"line1": "1 40749U 15037B   25356.89541973 -.00000055  00000+0  00000+0 0  9996", "line2": "2 40749  55.0261 308.1047 0003734   3.0626 356.9410  1.86253921 70846"}}, "geometry": {"type": "Point", "coordinates": [130.50684478747064, -3.522655024241021]}}, {"type": "Feature", "properties": {"norad_id": 40889, "name": "GSAT0205 (GALILEO 9)", "group": "gnss", "lat": -46.864477509760675, "lon": 94.84095977485747, "alt_km": 23244.89902978452, "timestamp": "2025-12-24T05:51:19.851688+00:00", "meta": {"OBJECT_NAME": "GSAT0205 (GALILEO 9)", "OBJECT_ID": "2015-045A", "EPOCH": "2025-12-23T06:16:38.782272", "MEAN_MOTION": 1.70473104, "ECCENTRICITY": 0.00062228, "INCLINATION": 55.0001, "RA_OF_ASC_NODE": 226.4673, "ARG_OF_PERICENTER": 42.5636, "MEAN_ANOMALY": 317.5856, "EPHEMERIS_TYPE": 0, "CLASSIFICATION_TYPE": "U", "NORAD_CAT_ID": 40889, "ELEMENT_SET_NO": 999, "REV_AT_EPOCH": 6401, "BSTAR": 0, "MEAN_MOTION_DOT": 7.3e-07, "MEAN_MOTION_DDOT": 0}, "tle": {"line1": "1 40889U 15045A   25357.26155998  .00000073  00000+0  00000+0 0  9999", "line2": "2 40889  55.0001 226.4673 0006222  42.5636 317.5856  1.70473104 64013"}}, "geometry": {"type": "Point", "coordinates": [94.84095977485747, -46.864477509760675]}}, {"type": "Feature", "properties": {"norad_id": 40890, "name": "GSAT0206 (GALILEO 10)", "group": "gnss", "lat": 51.313168068859596, "lon": -14.569551786200723, "alt_km": 23209.58222279644, "timestamp": "2025-12-24T05:51:19.851701+00:00", "meta": {"OBJECT_NAME": "GSAT0206 (GALILEO 10)", "OBJECT_ID": "2015-045B", "EPOCH": "2025-12-23T11:34:23.439072", "MEAN_MOTION": 1.70473137, "ECCENTRICITY": 0.00045197, "INCLINATION": 54.999, "RA_OF_ASC_NODE": 226.4563, "ARG_OF_PERICENTER": 47.4687, "MEAN_ANOMALY": 312.6693, "EPHEMERIS_TYPE": 0, "CLASSIFICATION_TYPE": "U", "NORAD_CAT_ID": 40890, "ELEMENT_SET_NO": 999, "REV_AT_EPOCH": 6404, "BSTAR": 0, "MEAN_MOTION_DOT": 7.2e-07, "MEAN_MOTION_DDOT": 0}, "tle": {"line1": "1 40890U 15045B   25357.48221573  .00000072  00000+0  00000+0 0  9997", "line2": "2 40890  54.9990 226.4563 0004519  47.4687 312.6693  1.70473137 64049"}}, "geometry": {"type": "Point", "coordinates": [-14.569551786200723, 51.313168068859596]}}]}